GLOBALSTAR M068 [-]     
1 32266U 07048D   17286.35375399 -.00000099  00000-0  26664-4 0  9993
2 32266  51.9882 207.9465 0001605  53.2460  61.8454 12.62690366463629
GLOBALSTAR M079 [+]     
1 37188U 10054A   17286.51147542 -.00000108  00000-0 -24964-4 0  9990
2 37188  52.0060  34.6525 0000414 143.7953 295.9495 12.62269119323064
GLOBALSTAR M074 [+]     
1 37189U 10054B   17286.29206229 -.00000097  00000-0  40079-4 0  9995
2 37189  52.0037  35.0809 0000645 151.7839 249.5524 12.62266813323030
GLOBALSTAR M076 [+]     
1 37190U 10054C   17286.56270584 -.00000103  00000-0  26078-5 0  9994
2 37190  52.0050  34.1672 0000386 160.0225 271.0655 12.62263986322840
GLOBALSTAR M077 [+]     
1 37191U 10054D   17286.55392775 -.00000096  00000-0  43315-4 0  9994
2 37191  52.0090 350.2579 0000239 147.0173 304.4931 12.62269823323358
GLOBALSTAR M075 [+]     
1 37192U 10054E   17286.57642056 -.00000097  00000-0  38299-4 0  9993
2 37192  51.9946  77.9323 0000395 158.5475 276.2353 12.62267571322162
GLOBALSTAR M073 [+]     
1 37193U 10054F   17286.50339065 -.00000094  00000-0  52584-4 0  9990
2 37193  52.0079 349.8602 0000231  87.7862  15.2667 12.62268407323816
GLOBALSTAR M083 [+]     
1 37739U 11033A   17286.52400133 -.00000082  00000-0  12410-3 0  9991
2 37739  51.9856 302.3588 0000700  97.9213  37.6921 12.62271355292995
GLOBALSTAR M088 [+]     
1 37740U 11033B   17286.55796712 -.00000109  00000-0 -30244-4 0  9994
2 37740  51.9727 210.1109 0000869  98.8288 312.9311 12.62269048288552
GLOBALSTAR M091 [+]     
1 37741U 11033C   17286.19561382 -.00000104  00000-0 -25616-5 0  9991
2 37741  51.9987 169.7469 0000871 105.2100  37.7160 12.62261981289337
GLOBALSTAR M085 [+]     
1 37742U 11033D   17286.32523587 -.00000109  00000-0 -29418-4 0  9990
2 37742  51.9847 122.8643 0000920  99.4462 333.9768 12.62269117290096
GLOBALSTAR M081 [+]     
1 37743U 11033E   17286.13258449 -.00000103  00000-0  22810-5 0  9995
2 37743  51.9938 124.5088 0000833 122.8228  34.2189 12.62268449290101
GLOBALSTAR M089 [+]     
1 37744U 11033F   17286.46680728 -.00000121  00000-0 -95052-4 0  9999
2 37744  51.9931  78.2427 0000550  78.9834 336.7425 12.62267039290867
GLOBALSTAR M084 [+]     
1 38040U 11080A   17286.49376796 -.00000080  00000-0  13462-3 0  9998
2 38040  52.0006 303.9884 0000397  30.6794  86.9511 12.62266357268818
GLOBALSTAR M080 [+]     
1 38041U 11080B   17286.47385856 -.00000098  00000-0  32248-4 0  9997
2 38041  52.0063 304.6680 0000297   9.2547 139.1576 12.62269062268796
GLOBALSTAR M082 [+]     
1 38042U 11080C   17286.48828809 -.00000088  00000-0  87649-4 0  9993
2 38042  52.0065 259.7790 0000724  93.1020  60.2633 12.62262947269530
GLOBALSTAR M092 [+]     
1 38043U 11080D   17286.52624738 -.00000094  00000-0  55688-4 0  9999
2 38043  52.0105 349.8642 0000479  60.5922  26.4330 12.62268826268099
GLOBALSTAR M090 [+]     
1 38044U 11080E   17286.51638564 -.00000091  00000-0  69222-4 0  9997
2 38044  51.9875 257.1135 0000746  91.3383  70.9131 12.62262589269588
GLOBALSTAR M086 [+]     
1 38045U 11080F   17286.46114833 -.00000090  00000-0  77219-4 0  9994
2 38045  51.9886 257.6186 0000935 248.4419 261.1918 12.62269167269482
GLOBALSTAR M097 [+]     
1 39072U 13005A   17286.13761161 -.00000098  00000-0  34952-4 0  9995
2 39072  52.0037 170.2789 0000747 115.2725 244.8219 12.62269408216778
GLOBALSTAR M093 [+]     
1 39073U 13005B   17286.19068005 -.00000107  00000-0 -19806-4 0  9992
2 39073  51.9800 167.9213 0000996 116.6676 243.4292 12.62264190216775
GLOBALSTAR M094 [+]     
1 39074U 13005C   17286.58628035 -.00000107  00000-0 -19758-4 0  9997
2 39074  51.9956  78.2833 0000645 130.3691 229.7232 12.62267658218316
GLOBALSTAR M096 [+]     
1 39075U 13005D   17286.04565338 -.00000102  00000-0  89364-5 0  9990
2 39075  52.0054 126.2590 0000820 111.3296 248.7659 12.62268010217492
GLOBALSTAR M078 [+]     
1 39076U 13005E   17286.33557507 -.00000096  00000-0  44832-4 0  9994
2 39076  51.9884 213.1204 0000852  98.3745 261.7218 12.62261017216044
GLOBALSTAR M095 [+]     
1 39077U 13005F   17286.36232562 -.00000102  00000-0  78639-5 0  9990
2 39077  51.9795 212.2199 0001189  94.1243 265.9760 12.62264047216044
